NORAD_CAT_ID,OBJECT_NAME,OBJECT_TYPE,EPOCH,MEAN_MOTION,ECCENTRICITY,INCLINATION,RA_OF_ASC_NODE,ARG_OF_PERICENTER,MEAN_ANOMALY,BSTAR,MEAN_MOTION_DOT,MEAN_MOTION_DDOT,TLE_LINE0,TLE_LINE1,TLE_LINE2,SEMIMAJOR_AXIS,PERIOD,APOGEE,PERIGEE,DECAYED
51882.0,STARLINK-3570,PAYLOAD,2022-07-12 14:00:01,15.08833071,0.0001682,53.2135,237.1345,42.4685,282.1914,0.0032328,0.00051529,0.0,0 STARLINK-3570,1 51882U 22022AG  22193.58334491  .00051529  00000-0  32328-2 0  9998,2 51882  53.2135 237.1345 0001682  42.4685 282.1914 15.08833071  1303,6917.901999999999,95.438,540.93,538.6030000000002,0.0
51882.0,STARLINK-3570,PAYLOAD,2022-07-12 22:00:00,15.08849575,0.0001541,53.2137,235.6362,47.9153,288.3555,0.00094114,0.00014726,0.0,0 STARLINK-3570,1 51882U 22022AG  22193.91667824  .00014726  00000-0  94114-3 0  9994,2 51882  53.2137 235.6362 0001541  47.9153 288.3555 15.08849575 21634,6917.851,95.437,540.7819999999998,538.65,0.0
51882.0,STARLINK-3570,PAYLOAD,2022-07-13 06:00:00,15.08894188,0.0001623,53.2152,234.1379,50.238,297.5927,-0.0077218,-0.00121298,0.0,0 STARLINK-3570,1 51882U 22022AG  22194.25001157 -.00121298  00000-0 -77218-2 0  9993,2 51882  53.2152 234.1379 0001623  50.2380 297.5927 15.08894188 21683,6917.715,95.434,540.703,538.457,0.0
51882.0,STARLINK-3570,PAYLOAD,2022-07-13 14:00:01,15.08832568,0.0001797,53.2135,232.6451,44.0352,315.399,0.00086931,0.00013571,0.0,0 STARLINK-3570,1 51882U 22022AG  22194.58334491  .00013571  00000-0  86931-3 0  9994,2 51882  53.2135 232.6451 0001797  44.0352 315.3990 15.08832568 21739,6917.903,95.438,541.011,538.525,0.0
51882.0,STARLINK-3570,PAYLOAD,2022-07-13 22:00:00,15.08806112,0.000158,53.2137,231.1469,48.4195,322.6186,0.0014452999999999,0.00022767,0.0,0 STARLINK-3570,1 51882U 22022AG  22194.91667824  .00022767  00000-0  14453-2 0  9996,2 51882  53.2137 231.1469 0001580  48.4195 322.6186 15.08806112  1302,6917.984,95.44,540.942,538.756,0.0
51882.0,STARLINK-3570,PAYLOAD,2022-07-14 08:00:01,15.08833059,0.0001736,53.2136,229.2775,46.0852,69.4102,-0.0012671,-0.00020394,0.0,0 STARLINK-3570,1 51882U 22022AG  22195.33334491 -.00020394  00000-0 -12671-2 0  9990,2 51882  53.2136 229.2775 0001736  46.0852  69.4102 15.08833059 21852,6917.901999999999,95.438,540.9680000000002,538.566,0.0
51882.0,STARLINK-3570,PAYLOAD,2022-07-14 14:00:01,15.08808718,0.0001781999999999,53.2135,228.1556,42.1173,352.0587,0.0020717,0.00032809,0.0,0 STARLINK-3570,1 51882U 22022AG  22195.58334491  .00032809  00000-0  20717-2 0  9999,2 51882  53.2135 228.1556 0001782  42.1173 352.0587 15.08808718  1300,6917.976,95.44,541.0740000000002,538.6080000000002,0.0
51882.0,STARLINK-3570,PAYLOAD,2022-07-14 22:00:00,15.08805241,0.0001583,53.2136,226.6574,48.4473,357.3103,0.0024255,0.00038488,0.0,0 STARLINK-3570,1 51882U 22022AG  22195.91667824  .00038488  00000-0  24255-2 0  9995,2 51882  53.2136 226.6574 0001583  48.4473 357.3103 15.08805241  1305,6917.986999999999,95.44,540.947,538.757,0.0
51882.0,STARLINK-3570,PAYLOAD,2022-07-15 06:00:00,15.0884708,0.0001691,53.2137,225.1619,47.6508,9.6736,-0.0019158,-0.00030655,0.0,0 STARLINK-3570,1 51882U 22022AG  22196.25001157 -.00030655  00000-0 -19158-2 0  9990,2 51882  53.2137 225.1619 0001691  47.6508   9.6736 15.08847080 21993,6917.859,95.437,540.894,538.554,0.0
51882.0,STARLINK-3570,PAYLOAD,2022-07-15 14:00:01,15.08822113,0.0001789,53.2134,223.6661,42.3976,26.5176,0.001622,0.00025608,0.0,0 STARLINK-3570,1 51882U 22022AG  22196.58334491  .00025608  00000-0  16220-2 0  9993,2 51882  53.2134 223.6661 0001789  42.3976  26.5176 15.08822113  1308,6917.935,95.439,541.038,538.562,0.0
51882.0,STARLINK-3570,PAYLOAD,2022-07-15 22:00:00,15.0881354,0.000158,53.2135,222.1679,49.1124,31.3975,0.0025957,0.00041235,0.0,0 STARLINK-3570,1 51882U 22022AG  22196.91667824  .00041235  00000-0  25957-2 0  9990,2 51882  53.2135 222.1679 0001580  49.1124  31.3975 15.08813540 22095,6917.9609999999975,95.439,540.919,538.7330000000002,0.0
51882.0,STARLINK-3570,PAYLOAD,2022-07-16 14:00:01,15.08834315,0.0001794,53.2132,219.1765,43.5454,60.1423,0.0011157,0.0001751,0.0,0 STARLINK-3570,1 51882U 22022AG  22197.58334491  .00017510  00000-0  11157-2 0  9991,2 51882  53.2132 219.1765 0001794  43.5454  60.1423 15.08834315 22197,6917.898,95.438,541.004,538.5219999999998,0.0
51882.0,STARLINK-3570,PAYLOAD,2022-07-16 22:00:00,15.088235,0.0001599,53.2133,217.6783,50.5133,64.781,0.0026558,0.00042214,0.0,0 STARLINK-3570,1 51882U 22022AG  22197.91667824  .00042214  00000-0  26558-2 0  9997,2 51882  53.2133 217.6783 0001599  50.5133  64.7810 15.08823500  1300,6917.931,95.439,540.9019999999998,538.69,0.0
51882.0,STARLINK-3570,PAYLOAD,2022-07-17 14:00:01,15.08847804,0.0001822,53.2131,214.687,45.0904,93.4016,0.00062094,9.61e-05,0.0,0 STARLINK-3570,1 51882U 22022AG  22198.58334491  .00009610  00000-0  62094-3 0  9991,2 51882  53.2131 214.6870 0001822  45.0904  93.4016 15.08847804 22343,6917.857,95.437,540.982,538.461,0.0
51882.0,STARLINK-3570,PAYLOAD,2022-07-17 22:00:00,15.08830873,0.0001647,53.2132,213.1888,51.1515,98.949,0.0021156,0.00033534,0.0,0 STARLINK-3570,1 51882U 22022AG  22198.91667824  .00033534  00000-0  21156-2 0  9992,2 51882  53.2132 213.1888 0001647  51.1515  98.9490 15.08830873  1305,6917.908,95.438,540.913,538.634,0.0
51882.0,STARLINK-3570,PAYLOAD,2022-07-18 06:00:00,15.08858716,0.0001745,53.2134,211.6937,48.0977,113.6047,-0.0037281,-0.00059165,0.0,0 STARLINK-3570,1 51882U 22022AG  22199.25001157 -.00059165  00000-0 -37281-2 0  9997,2 51882  53.2134 211.6937 0001745  48.0977 113.6047 15.08858716 22448,6917.823,95.436,540.895,538.481,0.0
51882.0,STARLINK-3570,PAYLOAD,2022-07-18 14:00:01,15.088281900000002,0.0001799,53.2131,210.1974,43.2738,130.0172,-7.6622e-05,-1.507e-05,0.0,0 STARLINK-3570,1 51882U 22022AG  22199.58334491 -.00001507  00000-0 -76622-4 0  9994,2 51882  53.2131 210.1974 0001799  43.2738 130.0172 15.08828190  1308,6917.916,95.438,541.026,538.5369999999998,0.0
51882.0,STARLINK-3570,PAYLOAD,2022-07-18 22:00:00,15.08808326,0.0001656,53.2132,208.6993,49.3981,135.4797,0.0023303,0.00036962,0.0,0 STARLINK-3570,1 51882U 22022AG  22199.91667824  .00036962  00000-0  23303-2 0  9997,2 51882  53.2132 208.6993 0001656  49.3981 135.4797 15.08808326 22541,6917.977,95.44,540.988,538.697,0.0
51882.0,STARLINK-3570,PAYLOAD,2022-07-19 14:00:01,15.08841677,0.0001884,53.2134,205.708,44.271,163.768,-0.00058585,-9.6e-05,0.0,0 STARLINK-3570,1 51882U 22022AG  22200.58334491 -.00009600  00000-0 -58585-3 0  9996,2 51882  53.2134 205.7080 0001884  44.2710 163.7680 15.08841677 22647,6917.875,95.437,541.044,538.437,0.0
51882.0,STARLINK-3570,PAYLOAD,2022-07-19 22:00:00,15.08807101,0.0001745,53.2152,204.2081,48.4748,171.1648,0.0045057,0.0007209,0.0,0 STARLINK-3570,1 51882U 22022AG  22200.91667824  .00072090  00000-0  45057-2 0  9992,2 51882  53.2152 204.2081 0001745  48.4748 171.1648 15.08807101  1306,6917.981,95.44,541.053,538.639,0.0
51882.0,STARLINK-3570,PAYLOAD,2022-07-20 14:00:01,15.088610699999998,0.0001966999999999,53.2138,201.2185,45.4073,197.4257,-0.0010239,-0.00016556,0.0,0 STARLINK-3570,1 51882U 22022AG  22201.58334491 -.00016556  00000-0 -10239-2 0  9998,2 51882  53.2138 201.2185 0001967  45.4073 197.4257 15.08861070  1308,6917.816,95.436,541.0419999999998,538.32,0.0
51882.0,STARLINK-3570,PAYLOAD,2022-07-20 22:00:01,15.08846437,0.000182,53.2141,199.7204,50.6237,203.8869,7.0644e-05,8.37e-06,0.0,0 STARLINK-3570,1 51882U 22022AG  22201.91668981  .00000837  00000-0  70644-4 0  9990,2 51882  53.2141 199.7204 0001820  50.6237 203.8869 15.08846437  1304,6917.861,95.437,540.985,538.467,0.0
51882.0,STARLINK-3570,PAYLOAD,2022-07-21 14:00:01,15.08846358,0.0001955,53.2141,196.729,44.3504,233.3456,-0.0016255,-0.0002607,0.0,0 STARLINK-3570,1 51882U 22022AG  22202.58335648 -.00026070  00000-0 -16255-2 0  9990,2 51882  53.2141 196.7290 0001955  44.3504 233.3456 15.08846358  1304,6917.861,95.437,541.078,538.374,0.0
51882.0,STARLINK-3570,PAYLOAD,2022-07-21 22:00:00,15.08817806,0.0001839,53.2143,195.2312,50.5295,238.6991,0.0024177,0.00038376,0.0,0 STARLINK-3570,1 51882U 22022AG  22202.91667824  .00038376  00000-0  24177-2 0  9993,2 51882  53.2143 195.2312 0001839  50.5295 238.6991 15.08817806  1300,6917.948,95.439,541.085,538.5409999999998,0.0
51882.0,STARLINK-3570,PAYLOAD,2022-07-22 06:00:00,15.0884339,0.0002017,53.2143,193.7366,46.8737,253.9444,-0.00064121,-0.0001048,0.0,0 STARLINK-3570,1 51882U 22022AG  22203.25001157 -.00010480  00000-0 -64121-3 0  9994,2 51882  53.2143 193.7366 0002017  46.8737 253.9444 15.08843390 23045,6917.87,95.437,541.13,538.34,0.0
51882.0,STARLINK-3570,PAYLOAD,2022-07-22 22:00:00,15.0883452,0.0001847,53.2143,190.742,52.2457,271.7739,0.0023081,0.00036631,0.0,0 STARLINK-3570,1 51882U 22022AG  22203.91667824  .00036631  00000-0  23081-2 0  9999,2 51882  53.2143 190.7420 0001847  52.2457 271.7739 15.08834520  1308,6917.897,95.438,541.04,538.484,0.0
51882.0,STARLINK-3570,PAYLOAD,2022-07-23 14:00:01,15.08844561,0.0001906999999999,53.2137,187.7503,45.5665,301.7087,-0.0021590999999999,-0.00034491,0.0,0 STARLINK-3570,1 51882U 22022AG  22204.58335648 -.00034491  00000-0 -21591-2 0  9997,2 51882  53.2137 187.7503 0001907  45.5665 301.7087 15.08844561  1308,6917.866,95.437,541.0509999999998,538.4119999999998,0.0
51882.0,STARLINK-3570,PAYLOAD,2022-07-23 22:00:00,15.08819829,0.0001784,53.2139,186.2529,52.3414,306.461,0.0022035,0.00034936,0.0,0 STARLINK-3570,1 51882U 22022AG  22204.91667824  .00034936  00000-0  22035-2 0  9994,2 51882  53.2139 186.2529 0001784  52.3414 306.4610 15.08819829  1306,6917.941999999999,95.439,541.0409999999998,538.573,0.0
51882.0,STARLINK-3570,PAYLOAD,2022-07-24 06:00:00,15.08836686,0.0001972,53.2137,184.7582,48.0116,322.3786,-0.00032258,-5.418e-05,0.0,0 STARLINK-3570,1 51882U 22022AG  22205.25001157 -.00005418  00000-0 -32258-3 0  9997,2 51882  53.2137 184.7582 0001972  48.0116 322.3786 15.08836686 23356,6917.891,95.438,541.12,538.391,0.0
